[{"OBJECT_NAME":"ONEWEB-0116","OBJECT_ID":"2021-025E","EPOCH":"2026-06-17T23:08:59.008704","MEAN_MOTION":13.13468089,"ECCENTRICITY":0.0001726,"INCLINATION":87.8963,"RA_OF_ASC_NODE":320.0623,"ARG_OF_PERICENTER":94.3204,"MEAN_ANOMALY":265.8123,"EPHEMERIS_TYPE":0,"CLASSIFICATION_TYPE":"U","NORAD_CAT_ID":48046,"ELEMENT_SET_NO":999,"REV_AT_EPOCH":25375,"BSTAR":0.00014498,"MEAN_MOTION_DOT":6.6e-07,"MEAN_MOTION_DDOT":0.0},{"OBJECT_NAME":"ONEWEB-0150","OBJECT_ID":"2021-025F","EPOCH":"2026-06-17T22:34:52.160736","MEAN_MOTION":13.13470197,"ECCENTRICITY":0.0002014,"INCLINATION":87.8961,"RA_OF_ASC_NODE":320.0645,"ARG_OF_PERICENTER":94.0161,"MEAN_ANOMALY":266.1198,"EPHEMERIS_TYPE":0,"CLASSIFICATION_TYPE":"U","NORAD_CAT_ID":48047,"ELEMENT_SET_NO":999,"REV_AT_EPOCH":25364,"BSTAR":0.0007729000000000001,"MEAN_MOTION_DOT":2.95e-06,"MEAN_MOTION_DDOT":0.0},{"OBJECT_NAME":"ONEWEB-0107","OBJECT_ID":"2021-025G","EPOCH":"2026-06-17T22:37:18.450624","MEAN_MOTION":13.13470146,"ECCENTRICITY":0.0002019,"INCLINATION":87.8963,"RA_OF_ASC_NODE":320.0601,"ARG_OF_PERICENTER":102.2262,"MEAN_ANOMALY":257.9093,"EPHEMERIS_TYPE":0,"CLASSIFICATION_TYPE":"U","NORAD_CAT_ID":48048,"ELEMENT_SET_NO":999,"REV_AT_EPOCH":25362,"BSTAR":0.00081268,"MEAN_MOTION_DOT":3.1e-06,"MEAN_MOTION_DDOT":0.0},{"OBJECT_NAME":"ONEWEB-0101","OBJECT_ID":"2021-025H","EPOCH":"2026-06-18T06:52:08.416992","MEAN_MOTION":13.13470258,"ECCENTRICITY":0.0001811,"INCLINATION":87.8953,"RA_OF_ASC_NODE":320.007,"ARG_OF_PERICENTER":102.2455,"MEAN_ANOMALY":257.8877,"EPHEMERIS_TYPE":0,"CLASSIFICATION_TYPE":"U","NORAD_CAT_ID":48049,"ELEMENT_SET_NO":999,"REV_AT_EPOCH":25364,"BSTAR":-0.0007326,"MEAN_MOTION_DOT":-2.55e-06,"MEAN_MOTION_DDOT":0.0},{"OBJECT_NAME":"ONEWEB-0113","OBJECT_ID":"2021-025J","EPOCH":"2026-06-17T22:18:24.263136","MEAN_MOTION":13.1389392,"ECCENTRICITY":0.0001855,"INCLINATION":87.8957,"RA_OF_ASC_NODE":319.9885,"ARG_OF_PERICENTER":93.701,"MEAN_ANOMALY":266.4332,"EPHEMERIS_TYPE":0,"CLASSIFICATION_TYPE":"U","NORAD_CAT_ID":48050,"ELEMENT_SET_NO":999,"REV_AT_EPOCH":25370,"BSTAR":5.9088e-05,"MEAN_MOTION_DOT":3.4e-07,"MEAN_MOTION_DDOT":0.0},{"OBJECT_NAME":"ONEWEB-0112","OBJECT_ID":"2021-025K","EPOCH":"2026-06-17T22:44:37.136256","MEAN_MOTION":13.13470112,"ECCENTRICITY":0.0001791,"INCLINATION":87.8962,"RA_OF_ASC_NODE":320.0571,"ARG_OF_PERICENTER":104.3109,"MEAN_ANOMALY":255.8219,"EPHEMERIS_TYPE":0,"CLASSIFICATION_TYPE":"U","NORAD_CAT_ID":48051,"ELEMENT_SET_NO":999,"REV_AT_EPOCH":25369,"BSTAR":0.00074012,"MEAN_MOTION_DOT":2.83e-06,"MEAN_MOTION_DDOT":0.0},{"OBJECT_NAME":"ONEWEB-0156","OBJECT_ID":"2021-025L","EPOCH":"2026-06-17T22:56:48.100992","MEAN_MOTION":13.13469855,"ECCENTRICITY":0.0001958,"INCLINATION":87.8962,"RA_OF_ASC_NODE":320.0654,"ARG_OF_PERICENTER":97.9214,"MEAN_ANOMALY":262.2137,"EPHEMERIS_TYPE":0,"CLASSIFICATION_TYPE":"U","NORAD_CAT_ID":48052,"ELEMENT_SET_NO":999,"REV_AT_EPOCH":25367,"BSTAR":0.00059597,"MEAN_MOTION_DOT":2.3e-06,"MEAN_MOTION_DDOT":0.0},{"OBJECT_NAME":"ONEWEB-0161","OBJECT_ID":"2021-025M","EPOCH":"2026-06-17T22:20:13.947072","MEAN_MOTION":13.13471136,"ECCENTRICITY":0.000201,"INCLINATION":87.8961,"RA_OF_ASC_NODE":320.0718,"ARG_OF_PERICENTER":99.6296,"MEAN_ANOMALY":260.506,"EPHEMERIS_TYPE":0,"CLASSIFICATION_TYPE":"U","NORAD_CAT_ID":48053,"ELEMENT_SET_NO":999,"REV_AT_EPOCH":25360,"BSTAR":0.00016312,"MEAN_MOTION_DOT":7.2e-07,"MEAN_MOTION_DDOT":0.0},{"OBJECT_NAME":"ONEWEB-0158","OBJECT_ID":"2021-025N","EPOCH":"2026-06-17T23:11:25.800576","MEAN_MOTION":13.13470974,"ECCENTRICITY":0.0001585,"INCLINATION":87.8963,"RA_OF_ASC_NODE":320.0617,"ARG_OF_PERICENTER":96.0575,"MEAN_ANOMALY":264.0735,"EPHEMERIS_TYPE":0,"CLASSIFICATION_TYPE":"U","NORAD_CAT_ID":48054,"ELEMENT_SET_NO":999,"REV_AT_EPOCH":25373,"BSTAR":-8.3658e-06,"MEAN_MOTION_DOT":1e-07,"MEAN_MOTION_DDOT":0.0},{"OBJECT_NAME":"ONEWEB-0157","OBJECT_ID":"2021-025P","EPOCH":"2026-06-17T20:08:36.523104","MEAN_MOTION":13.13470366,"ECCENTRICITY":0.0002105,"INCLINATION":87.8959,"RA_OF_ASC_NODE":320.0928,"ARG_OF_PERICENTER":106.1379,"MEAN_ANOMALY":253.9982,"EPHEMERIS_TYPE":0,"CLASSIFICATION_TYPE":"U","NORAD_CAT_ID":48055,"ELEMENT_SET_NO":999,"REV_AT_EPOCH":25365,"BSTAR":-0.00077061,"MEAN_MOTION_DOT":-2.69e-06,"MEAN_MOTION_DDOT":0.0},{"OBJECT_NAME":"ONEWEB-0162","OBJECT_ID":"2021-025Q","EPOCH":"2026-06-17T23:13:40.163808","MEAN_MOTION":13.13469292,"ECCENTRICITY":0.0001965,"INCLINATION":87.8959,"RA_OF_ASC_NODE":320.0678,"ARG_OF_PERICENTER":93.9028,"MEAN_ANOMALY":266.2326,"EPHEMERIS_TYPE":0,"CLASSIFICATION_TYPE":"U","NORAD_CAT_ID":48056,"ELEMENT_SET_NO":999,"REV_AT_EPOCH":25364,"BSTAR":-7.7133e-05,"MEAN_MOTION_DOT":-1.5e-07,"MEAN_MOTION_DDOT":0.0},{"OBJECT_NAME":"ONEWEB-0155","OBJECT_ID":"2021-025R","EPOCH":"2026-06-17T23:23:36.558816","MEAN_MOTION":13.13469788,"ECCENTRICITY":0.000182,"INCLINATION":87.8959,"RA_OF_ASC_NODE":320.0625,"ARG_OF_PERICENTER":102.3487,"MEAN_ANOMALY":257.7846,"EPHEMERIS_TYPE":0,"CLASSIFICATION_TYPE":"U","NORAD_CAT_ID":48057,"ELEMENT_SET_NO":999,"REV_AT_EPOCH":25378,"BSTAR":-0.0005444299999999999,"MEAN_MOTION_DOT":-1.86e-06,"MEAN_MOTION_DDOT":0.0},{"OBJECT_NAME":"ONEWEB-0149","OBJECT_ID":"2021-025S","EPOCH":"2026-06-17T22:05:36.810816","MEAN_MOTION":13.1347028,"ECCENTRICITY":0.0002026,"INCLINATION":87.8961,"RA_OF_ASC_NODE":320.0772,"ARG_OF_PERICENTER":93.6168,"MEAN_ANOMALY":266.5193,"EPHEMERIS_TYPE":0,"CLASSIFICATION_TYPE":"U","NORAD_CAT_ID":48058,"ELEMENT_SET_NO":999,"REV_AT_EPOCH":25358,"BSTAR":-0.0005534,"MEAN_MOTION_DOT":-1.89e-06,"MEAN_MOTION_DDOT":0.0},{"OBJECT_NAME":"ONEWEB-0148","OBJECT_ID":"2021-025T","EPOCH":"2026-06-17T23:01:40.696320","MEAN_MOTION":13.13469731,"ECCENTRICITY":0.0002403,"INCLINATION":87.8955,"RA_OF_ASC_NODE":320.0762,"ARG_OF_PERICENTER":92.2771,"MEAN_ANOMALY":267.8633,"EPHEMERIS_TYPE":0,"CLASSIFICATION_TYPE":"U","NORAD_CAT_ID":48059,"ELEMENT_SET_NO":999,"REV_AT_EPOCH":25371,"BSTAR":0.00045423999999999996,"MEAN_MOTION_DOT":1.79e-06,"MEAN_MOTION_DDOT":0.0},{"OBJECT_NAME":"ONEWEB-0160","OBJECT_ID":"2021-025U","EPOCH":"2026-06-17T23:26:02.433120","MEAN_MOTION":13.13470636,"ECCENTRICITY":0.0001377,"INCLINATION":87.8955,"RA_OF_ASC_NODE":320.0687,"ARG_OF_PERICENTER":75.815,"MEAN_ANOMALY":284.3132,"EPHEMERIS_TYPE":0,"CLASSIFICATION_TYPE":"U","NORAD_CAT_ID":48060,"ELEMENT_SET_NO":999,"REV_AT_EPOCH":25366,"BSTAR":-0.00078335,"MEAN_MOTION_DOT":-2.73e-06,"MEAN_MOTION_DDOT":0.0},{"OBJECT_NAME":"ONEWEB-0163","OBJECT_ID":"2021-025V","EPOCH":"2026-06-17T23:04:06.110976","MEAN_MOTION":13.13470463,"ECCENTRICITY":0.000199,"INCLINATION":87.8962,"RA_OF_ASC_NODE":320.0664,"ARG_OF_PERICENTER":104.043,"MEAN_ANOMALY":256.0921,"EPHEMERIS_TYPE":0,"CLASSIFICATION_TYPE":"U","NORAD_CAT_ID":48061,"ELEMENT_SET_NO":999,"REV_AT_EPOCH":25378,"BSTAR":0.00029015000000000003,"MEAN_MOTION_DOT":1.19e-06,"MEAN_MOTION_DDOT":0.0}]